IRIDIUM 106             
1 41917U 17003A   23226.98646030  .00000026  00000+0  22396-5 0  9998
2 41917  86.4030 161.9900 0002606  83.7482 276.4011 14.34212708344540
IRIDIUM 103             
1 41918U 17003B   23226.34585756  .00000335  00000+0  11253-3 0  9997
2 41918  86.4030 162.1603 0002357  92.8225 267.3240 14.34219515344482
IRIDIUM 109             
1 41919U 17003C   23227.11965160  .00000320  00000+0  10718-3 0  9994
2 41919  86.4031 161.8798 0002090  87.8967 272.2468 14.34219844344578
IRIDIUM 102             
1 41920U 17003D   23227.36701947  .00000351  00000+0  11836-3 0  9990
2 41920  86.4031 161.7223 0002216  85.9421 274.2028 14.34218438344679
IRIDIUM 105             
1 41921U 17003E   23227.26787939  .00000368  00000+0  12428-3 0  9991
2 41921  86.3996 130.2212 0002174  85.0561 275.0883 14.34233536346516
IRIDIUM 104             
1 41922U 17003F   23227.10062566  .00000344  00000+0  11562-3 0  9999
2 41922  86.4032 161.8604 0002361  87.4827 272.6639 14.34219675344623
IRIDIUM 114             
1 41923U 17003G   23226.33951749  .00000330  00000+0  11064-3 0  9996
2 41923  86.4031 162.1646 0002511  79.9604 280.1875 14.34218704344515
IRIDIUM 108             
1 41924U 17003H   23227.27479997  .00000362  00000+0  12202-3 0  9991
2 41924  86.3990 130.1631 0002458  83.9286 276.2190 14.34218717346500
